CCSDS_OMM_VERS = 2.0
CREATION_DATE  = 
ORIGINATOR     = 

OBJECT_NAME    = STARLINK-36202
OBJECT_ID      = 2025-298V
CENTER_NAME    = EARTH
REF_FRAME      = TEME
TIME_SYSTEM    = UTC
MEAN_ELEMENT_THEORY = SGP/SGP4

EPOCH          = 2025-12-21T14:00:01.999872
MEAN_MOTION    = 15.89542468
ECCENTRICITY   = .00033403
INCLINATION    = 69.9974
RA_OF_ASC_NODE = 224.9331
ARG_OF_PERICENTER = 267.3664
MEAN_ANOMALY   = 7.3293

EPHEMERIS_TYPE = 0
CLASSIFICATION_TYPE = U
NORAD_CAT_ID   = 67094
ELEMENT_SET_NO = 999
REV_AT_EPOCH   = 240
BSTAR          = .32238485E-3
MEAN_MOTION_DOT = .93405E-3
MEAN_MOTION_DDOT = .7008565E-5

CCSDS_OMM_VERS = 2.0
CREATION_DATE  = 
ORIGINATOR     = 

OBJECT_NAME    = STARLINK-36227
OBJECT_ID      = 2025-298W
CENTER_NAME    = EARTH
REF_FRAME      = TEME
TIME_SYSTEM    = UTC
MEAN_ELEMENT_THEORY = SGP/SGP4

EPOCH          = 2025-12-21T14:00:01.999872
MEAN_MOTION    = 15.89604258
ECCENTRICITY   = .0003127
INCLINATION    = 69.9972
RA_OF_ASC_NODE = 224.9304
ARG_OF_PERICENTER = 270.2928
MEAN_ANOMALY   = 6.2613

EPHEMERIS_TYPE = 0
CLASSIFICATION_TYPE = U
NORAD_CAT_ID   = 67095
ELEMENT_SET_NO = 999
REV_AT_EPOCH   = 234
BSTAR          = .19189362E-3
MEAN_MOTION_DOT = .55271E-3
MEAN_MOTION_DDOT = .5004764E-5

CCSDS_OMM_VERS = 2.0
CREATION_DATE  = 
ORIGINATOR     = 

OBJECT_NAME    = STARLINK-36228
OBJECT_ID      = 2025-298X
CENTER_NAME    = EARTH
REF_FRAME      = TEME
TIME_SYSTEM    = UTC
MEAN_ELEMENT_THEORY = SGP/SGP4

EPOCH          = 2025-12-21T14:00:01.999872
MEAN_MOTION    = 15.89637656
ECCENTRICITY   = .00033088
INCLINATION    = 69.9975
RA_OF_ASC_NODE = 224.9288
ARG_OF_PERICENTER = 270.3836
MEAN_ANOMALY   = 7.7339

EPHEMERIS_TYPE = 0
CLASSIFICATION_TYPE = U
NORAD_CAT_ID   = 67096
ELEMENT_SET_NO = 999
REV_AT_EPOCH   = 234
BSTAR          = .33770168E-3
MEAN_MOTION_DOT = .98376E-3
MEAN_MOTION_DDOT = .735091E-5

CCSDS_OMM_VERS = 2.0
CREATION_DATE  = 
ORIGINATOR     = 

OBJECT_NAME    = STARLINK-36222
OBJECT_ID      = 2025-298Y
CENTER_NAME    = EARTH
REF_FRAME      = TEME
TIME_SYSTEM    = UTC
MEAN_ELEMENT_THEORY = SGP/SGP4

EPOCH          = 2025-12-21T14:00:01.999872
MEAN_MOTION    = 15.89686562
ECCENTRICITY   = .00033893
INCLINATION    = 69.9973
RA_OF_ASC_NODE = 224.9269
ARG_OF_PERICENTER = 268.7040
MEAN_ANOMALY   = 11.2215

EPHEMERIS_TYPE = 0
CLASSIFICATION_TYPE = U
NORAD_CAT_ID   = 67097
ELEMENT_SET_NO = 999
REV_AT_EPOCH   = 234
BSTAR          = .33959234E-3
MEAN_MOTION_DOT = .99182E-3
MEAN_MOTION_DDOT = .7410007E-5

CCSDS_OMM_VERS = 2.0
CREATION_DATE  = 
ORIGINATOR     = 

OBJECT_NAME    = STARLINK-36205
OBJECT_ID      = 2025-298Z
CENTER_NAME    = EARTH
REF_FRAME      = TEME
TIME_SYSTEM    = UTC
MEAN_ELEMENT_THEORY = SGP/SGP4

EPOCH          = 2025-12-21T14:00:01.999872
MEAN_MOTION    = 15.89754922
ECCENTRICITY   = .00032237
INCLINATION    = 69.9974
RA_OF_ASC_NODE = 224.9243
ARG_OF_PERICENTER = 269.1788
MEAN_ANOMALY   = 12.7554

EPHEMERIS_TYPE = 0
CLASSIFICATION_TYPE = U
NORAD_CAT_ID   = 67098
ELEMENT_SET_NO = 999
REV_AT_EPOCH   = 240
BSTAR          = .22181523E-3
MEAN_MOTION_DOT = .6458E-3
MEAN_MOTION_DDOT = .5403348E-5

CCSDS_OMM_VERS = 2.0
CREATION_DATE  = 
ORIGINATOR     = 

OBJECT_NAME    = STARLINK-36193
OBJECT_ID      = 2025-298AA
CENTER_NAME    = EARTH
REF_FRAME      = TEME
TIME_SYSTEM    = UTC
MEAN_ELEMENT_THEORY = SGP/SGP4

EPOCH          = 2025-12-21T14:00:01.999872
MEAN_MOTION    = 15.89859570
ECCENTRICITY   = .00032778
INCLINATION    = 69.9972
RA_OF_ASC_NODE = 224.9205
ARG_OF_PERICENTER = 274.1126
MEAN_ANOMALY   = 10.8809

EPHEMERIS_TYPE = 0
CLASSIFICATION_TYPE = U
NORAD_CAT_ID   = 67099
ELEMENT_SET_NO = 999
REV_AT_EPOCH   = 234
BSTAR          = .18536029E-3
MEAN_MOTION_DOT = .54055E-3
MEAN_MOTION_DDOT = .4963204E-5

CCSDS_OMM_VERS = 2.0
CREATION_DATE  = 
ORIGINATOR     = 

OBJECT_NAME    = STARLINK-36215
OBJECT_ID      = 2025-298AB
CENTER_NAME    = EARTH
REF_FRAME      = TEME
TIME_SYSTEM    = UTC
MEAN_ELEMENT_THEORY = SGP/SGP4

EPOCH          = 2025-12-21T14:00:01.999872
MEAN_MOTION    = 15.89915099
ECCENTRICITY   = .00034084
INCLINATION    = 69.9971
RA_OF_ASC_NODE = 224.9185
ARG_OF_PERICENTER = 262.6932
MEAN_ANOMALY   = 23.9851

EPHEMERIS_TYPE = 0
CLASSIFICATION_TYPE = U
NORAD_CAT_ID   = 67100
ELEMENT_SET_NO = 999
REV_AT_EPOCH   = 240
BSTAR          = .130341E-3
MEAN_MOTION_DOT = .37754E-3
MEAN_MOTION_DDOT = .4431868E-5

CCSDS_OMM_VERS = 2.0
CREATION_DATE  = 
ORIGINATOR     = 

OBJECT_NAME    = STARLINK-36200
OBJECT_ID      = 2025-298AC
CENTER_NAME    = EARTH
REF_FRAME      = TEME
TIME_SYSTEM    = UTC
MEAN_ELEMENT_THEORY = SGP/SGP4

EPOCH          = 2025-12-21T14:00:01.999872
MEAN_MOTION    = 15.89816029
ECCENTRICITY   = .00035051
INCLINATION    = 69.9975
RA_OF_ASC_NODE = 224.9226
ARG_OF_PERICENTER = 270.0978
MEAN_ANOMALY   = 13.3408

EPHEMERIS_TYPE = 0
CLASSIFICATION_TYPE = U
NORAD_CAT_ID   = 67101
ELEMENT_SET_NO = 999
REV_AT_EPOCH   = 240
BSTAR          = .14577154E-3
MEAN_MOTION_DOT = .42154E-3
MEAN_MOTION_DDOT = .4555469E-5

CCSDS_OMM_VERS = 2.0
CREATION_DATE  = 
ORIGINATOR     = 

OBJECT_NAME    = STARLINK-36255
OBJECT_ID      = 2025-299A
CENTER_NAME    = EARTH
REF_FRAME      = TEME
TIME_SYSTEM    = UTC
MEAN_ELEMENT_THEORY = SGP/SGP4

EPOCH          = 2025-12-21T14:00:01.999872
MEAN_MOTION    = 15.93880424
ECCENTRICITY   = .00020419
INCLINATION    = 42.9991
RA_OF_ASC_NODE = 262.7473
ARG_OF_PERICENTER = 261.3938
MEAN_ANOMALY   = 174.0841

EPHEMERIS_TYPE = 0
CLASSIFICATION_TYPE = U
NORAD_CAT_ID   = 67102
ELEMENT_SET_NO = 999
REV_AT_EPOCH   = 223
BSTAR          = -.13315035E-3
MEAN_MOTION_DOT = -.53337E-3
MEAN_MOTION_DDOT = .9287186E-5

CCSDS_OMM_VERS = 2.0
CREATION_DATE  = 
ORIGINATOR     = 

OBJECT_NAME    = STARLINK-36256
OBJECT_ID      = 2025-299B
CENTER_NAME    = EARTH
REF_FRAME      = TEME
TIME_SYSTEM    = UTC
MEAN_ELEMENT_THEORY = SGP/SGP4

EPOCH          = 2025-12-21T14:00:01.999872
MEAN_MOTION    = 15.93825406
ECCENTRICITY   = .00022866
INCLINATION    = 42.9991
RA_OF_ASC_NODE = 262.7445
ARG_OF_PERICENTER = 271.9652
MEAN_ANOMALY   = 164.6398

EPHEMERIS_TYPE = 0
CLASSIFICATION_TYPE = U
NORAD_CAT_ID   = 67103
ELEMENT_SET_NO = 999
REV_AT_EPOCH   = 223
BSTAR          = .16449157E-3
MEAN_MOTION_DOT = .5978E-3
MEAN_MOTION_DDOT = .9778691E-5

CCSDS_OMM_VERS = 2.0
CREATION_DATE  = 
ORIGINATOR     = 

OBJECT_NAME    = STARLINK-36258
OBJECT_ID      = 2025-299C
CENTER_NAME    = EARTH
REF_FRAME      = TEME
TIME_SYSTEM    = UTC
MEAN_ELEMENT_THEORY = SGP/SGP4

EPOCH          = 2025-12-21T14:00:01.999872
MEAN_MOTION    = 15.93875192
ECCENTRICITY   = .00029497
INCLINATION    = 42.9992
RA_OF_ASC_NODE = 262.7410
ARG_OF_PERICENTER = 264.1683
MEAN_ANOMALY   = 173.7922

EPHEMERIS_TYPE = 0
CLASSIFICATION_TYPE = U
NORAD_CAT_ID   = 67104
ELEMENT_SET_NO = 999
REV_AT_EPOCH   = 223
BSTAR          = -.11970568E-3
MEAN_MOTION_DOT = -.48216E-3
MEAN_MOTION_DDOT = .9114349E-5

CCSDS_OMM_VERS = 2.0
CREATION_DATE  = 
ORIGINATOR     = 

OBJECT_NAME    = STARLINK-36261
OBJECT_ID      = 2025-299D
CENTER_NAME    = EARTH
REF_FRAME      = TEME
TIME_SYSTEM    = UTC
MEAN_ELEMENT_THEORY = SGP/SGP4

EPOCH          = 2025-12-21T14:00:01.999872
MEAN_MOTION    = 15.93937360
ECCENTRICITY   = .00022872
INCLINATION    = 42.9991
RA_OF_ASC_NODE = 262.7386
ARG_OF_PERICENTER = 264.0824
MEAN_ANOMALY   = 174.8653

EPHEMERIS_TYPE = 0
CLASSIFICATION_TYPE = U
NORAD_CAT_ID   = 67105
ELEMENT_SET_NO = 999
REV_AT_EPOCH   = 223
BSTAR          = -.36613941E-3
MEAN_MOTION_DOT = -.142444E-2
MEAN_MOTION_DDOT = .1511647E-4

CCSDS_OMM_VERS = 2.0
CREATION_DATE  = 
ORIGINATOR     = 

OBJECT_NAME    = STARLINK-36259
OBJECT_ID      = 2025-299E
CENTER_NAME    = EARTH
REF_FRAME      = TEME
TIME_SYSTEM    = UTC
MEAN_ELEMENT_THEORY = SGP/SGP4

EPOCH          = 2025-12-21T14:00:01.999872
MEAN_MOTION    = 15.94145984
ECCENTRICITY   = .00025535
INCLINATION    = 42.9992
RA_OF_ASC_NODE = 262.7310
ARG_OF_PERICENTER = 270.2890
MEAN_ANOMALY   = 171.6705

EPHEMERIS_TYPE = 0
CLASSIFICATION_TYPE = U
NORAD_CAT_ID   = 67106
ELEMENT_SET_NO = 999
REV_AT_EPOCH   = 223
BSTAR          = -.11933991E-2
MEAN_MOTION_DOT = -.463035E-2
MEAN_MOTION_DDOT = .7761376E-4

CCSDS_OMM_VERS = 2.0
CREATION_DATE  = 
ORIGINATOR     = 

OBJECT_NAME    = STARLINK-36196
OBJECT_ID      = 2025-299F
CENTER_NAME    = EARTH
REF_FRAME      = TEME
TIME_SYSTEM    = UTC
MEAN_ELEMENT_THEORY = SGP/SGP4

EPOCH          = 2025-12-21T14:00:01.999872
MEAN_MOTION    = 15.94042068
ECCENTRICITY   = .00021801
INCLINATION    = 42.9992
RA_OF_ASC_NODE = 262.7351
ARG_OF_PERICENTER = 266.3761
MEAN_ANOMALY   = 173.9739

EPHEMERIS_TYPE = 0
CLASSIFICATION_TYPE = U
NORAD_CAT_ID   = 67107
ELEMENT_SET_NO = 999
REV_AT_EPOCH   = 223
BSTAR          = -.77408723E-3
MEAN_MOTION_DOT = -.299753E-2
MEAN_MOTION_DDOT = .37982647E-4

CCSDS_OMM_VERS = 2.0
CREATION_DATE  = 
ORIGINATOR     = 

OBJECT_NAME    = STARLINK-36208
OBJECT_ID      = 2025-299G
CENTER_NAME    = EARTH
REF_FRAME      = TEME
TIME_SYSTEM    = UTC
MEAN_ELEMENT_THEORY = SGP/SGP4

EPOCH          = 2025-12-21T14:00:01.999872
MEAN_MOTION    = 15.94231709
ECCENTRICITY   = .00027992
INCLINATION    = 42.9992
RA_OF_ASC_NODE = 262.7270
ARG_OF_PERICENTER = 271.6206
MEAN_ANOMALY   = 171.9295

EPHEMERIS_TYPE = 0
CLASSIFICATION_TYPE = U
NORAD_CAT_ID   = 67108
ELEMENT_SET_NO = 999
REV_AT_EPOCH   = 223
BSTAR          = -.15717558E-2
MEAN_MOTION_DOT = -.611431E-2
MEAN_MOTION_DDOT = .12672895E-3

